[{"OBJECT_NAME":"LIZZIESAT-2 (LS-2)","OBJECT_ID":"2024-247G","EPOCH":"2026-03-09T11:47:37.199328","MEAN_MOTION":15.28222796,"ECCENTRICITY":0.00040927,"INCLINATION":44.9909,"RA_OF_ASC_NODE":117.0823,"ARG_OF_PERICENTER":327.5136,"MEAN_ANOMALY":32.5495,"EPHEMERIS_TYPE":0,"CLASSIFICATION_TYPE":"U","NORAD_CAT_ID":62383,"ELEMENT_SET_NO":999,"REV_AT_EPOCH":6771,"BSTAR":0.00034516624,"MEAN_MOTION_DOT":9.388e-5,"MEAN_MOTION_DDOT":0},{"OBJECT_NAME":"STARLINK-32798","OBJECT_ID":"2025-034A","EPOCH":"2026-03-09T20:24:32.546016","MEAN_MOTION":15.30200436,"ECCENTRICITY":8.224e-5,"INCLINATION":53.1575,"RA_OF_ASC_NODE":270.007,"ARG_OF_PERICENTER":70.6061,"MEAN_ANOMALY":289.5028,"EPHEMERIS_TYPE":0,"CLASSIFICATION_TYPE":"U","NORAD_CAT_ID":63029,"ELEMENT_SET_NO":999,"REV_AT_EPOCH":5893,"BSTAR":0.0010128444,"MEAN_MOTION_DOT":0.00029759,"MEAN_MOTION_DDOT":0}]
